GLOBALSTAR M001 [-]     
1 25162U 98008A   23268.23999622 -.00000080  00000+0  12500-3 0  9993
2 25162  52.0063   9.5744 0001543  27.9837 347.2085 12.38167707165667
GLOBALSTAR M004 [-]     
1 25163U 98008B   23268.15012067 -.00000094  00000+0  52888-4 0  9993
2 25163  51.9987 179.2117 0003120 340.9318 162.0319 12.63338391182024
GLOBALSTAR M002 [-]     
1 25164U 98008C   23267.75863972 -.00000075  00000+0  26009-4 0  9993
2 25164  52.0050  23.3837 0001923  79.8844 280.2193 11.61495156110694
GLOBALSTAR M003 [-]     
1 25165U 98008D   23268.00601753  .00000026  00000+0  12321-2 0  9995
2 25165  51.9724 116.7745 0008522 101.6652  48.0884 12.11939177156777
GLOBALSTAR M014 [-]     
1 25306U 98023A   23268.39877767 -.00000034  00000+0  81134-3 0  9990
2 25306  51.9852 318.2662 0000520 273.8471  99.1419 11.65459961117611
GLOBALSTAR M006 [-]     
1 25307U 98023B   23267.74182914 -.00000063  00000+0  25307-3 0  9994
2 25307  51.9972 348.7991 0003816  60.3608 116.3876 11.58153903143662
GLOBALSTAR M015 [-]     
1 25308U 98023C   23268.41989097 -.00000037  00000+0  83740-3 0  9993
2 25308  51.9833  56.6777 0012932  38.4232 334.4933 11.48849949121950
GLOBALSTAR M008 [-]     
1 25309U 98023D   23267.38062400 -.00000069  00000+0  20927-3 0  9992
2 25309  51.9954 229.7542 0002336 291.0707 235.5529 12.36028088159717
